[{"OBJECT_NAME":"STARLINK-4584","OBJECT_ID":"2022-101AW","EPOCH":"2026-03-09T22:33:03.379680","MEAN_MOTION":15.08833172,"ECCENTRICITY":0.0001191,"INCLINATION":53.2162,"RA_OF_ASC_NODE":52.9445,"ARG_OF_PERICENTER":91.0123,"MEAN_ANOMALY":269.1006,"EPHEMERIS_TYPE":0,"CLASSIFICATION_TYPE":"U","NORAD_CAT_ID":53571,"ELEMENT_SET_NO":999,"REV_AT_EPOCH":19717,"BSTAR":-2.97862e-7,"MEAN_MOTION_DOT":-2.93e-6,"MEAN_MOTION_DDOT":0},{"OBJECT_NAME":"UNKNOWN","OBJECT_ID":"","EPOCH":"2026-02-15T06:28:00.562080","MEAN_MOTION":14.53453444,"ECCENTRICITY":0.0369408,"INCLINATION":66.0766,"RA_OF_ASC_NODE":348.0426,"ARG_OF_PERICENTER":102.1486,"MEAN_ANOMALY":262.125,"EPHEMERIS_TYPE":0,"CLASSIFICATION_TYPE":"U","NORAD_CAT_ID":81947,"ELEMENT_SET_NO":999,"REV_AT_EPOCH":64039,"BSTAR":0.00046514,"MEAN_MOTION_DOT":4.726e-5,"MEAN_MOTION_DDOT":0}]
